IRIDIUM 144             
1 43249U 18030A   25170.50406756  .00000208  00000+0  67107-4 0  9996
2 43249  86.3959  82.0363 0002261  82.0276 278.1176 14.34217601378157
IRIDIUM 149             
1 43250U 18030B   25171.48716926  .00000205  00000+0  66094-4 0  9990
2 43250  86.3958  81.5966 0002217  80.9859 279.1588 14.34217466378311
IRIDIUM 157             
1 43251U 18030C   25171.15735479  .00000024  00000+0  15886-5 0  9992
2 43251  86.3961  81.7796 0002128  90.0127 270.1313 14.34217740378244
IRIDIUM 140             
1 43252U 18030D   25171.45545647  .00000180  00000+0  57219-4 0  9990
2 43252  86.3960  81.6686 0002357  80.5047 279.6415 14.34217989378343
IRIDIUM 145             
1 43253U 18030E   25170.81485445  .00000221  00000+0  71813-4 0  9991
2 43253  86.3961  81.9092 0002198  73.2127 286.9310 14.34217943378187
IRIDIUM 146             
1 43254U 18030F   25171.49351164 -.00000128  00000+0 -52734-4 0  9996
2 43254  86.3957  81.6388 0002083  72.2201 287.9222 14.34217756378290
IRIDIUM 148             
1 43255U 18030G   25171.18272485  .00000209  00000+0  67451-4 0  9991
2 43255  86.3962  81.8064 0002064  83.8885 276.2546 14.34217924378292
IRIDIUM 142             
1 43256U 18030H   25171.49985393  .00000002  00000+0 -61979-5 0  9997
2 43256  86.3955  81.5760 0001964  68.8886 291.2520 14.34217469378290
